CCSDS_OMM_VERS,COMMENT,CREATION_DATE,ORIGINATOR,OBJECT_NAME,OBJECT_ID,CENTER_NAME,REF_FRAME,TIME_SYSTEM,MEAN_ELEMENT_THEORY,EPOCH,MEAN_MOTION,ECCENTRICITY,INCLINATION,RA_OF_ASC_NODE,ARG_OF_PERICENTER,MEAN_ANOMALY,EPHEMERIS_TYPE,CLASSIFICATION_TYPE,NORAD_CAT_ID,ELEMENT_SET_NO,REV_AT_EPOCH,BSTAR,MEAN_MOTION_DOT,MEAN_MOTION_DDOT,SEMIMAJOR_AXIS,PERIOD,APOAPSIS,PERIAPSIS,OBJECT_TYPE,RCS_SIZE,COUNTRY_CODE,LAUNCH_DATE,SITE,DECAY_DATE,FILE,GP_ID,TLE_LINE0,TLE_LINE1,TLE_LINE2
"2.0","GENERATED VIA SPACE-TRACK.ORG API","2020-01-16T21:27:20","18 SPCS","IRIDIUM 153","2017-083J","EARTH","TEME","UTC","SGP4","2020-01-16T05:04:19.176384","14.34216966","0.00025050","86.3990","189.9787","112.6836","247.4624","0","U","43078","999","10931","-0.00000551510000","0.00000004","0.0000000000000","7155.806","100.403","779.464","775.879","PAYLOAD","LARGE","US","2017-12-23","AFWTR","","2685134","146858947","0 IRIDIUM 153","1 43078U 17083J   20016.21133306 +.00000004 +00000-0 -55151-5 0  9996","2 43078 086.3990 189.9787 0002505 112.6836 247.4624 14.34216966109312"
"2.0","GENERATED VIA SPACE-TRACK.ORG API","2020-01-16T21:27:20","18 SPCS","COSMOS 1867","1987-060A","EARTH","TEME","UTC","SGP4","2020-01-16T05:02:47.085216","14.31108753","0.00154030","65.0096","109.6145","258.5134","101.4221","0","U","18187","999","69871","-0.00000272980000","-0.00000107","0.0000000000000","7166.164","100.621","799.067","776.991","PAYLOAD","LARGE","CIS","1987-07-10","TTMTR","","2685134","146845402","0 COSMOS 1867","1 18187U 87060A   20016.21026719 -.00000107 +00000-0 -27298-5 0  9996","2 18187 065.0096 109.6145 0015403 258.5134 101.4221 14.31108753698715"
"2.0","GENERATED VIA SPACE-TRACK.ORG API","2020-01-16T06:20:15","18 SPCS","COSMOS 1867","1987-060A","EARTH","TEME","UTC","SGP4","2020-01-16T03:22:09.384096","14.31108753","0.00154060","65.0096","109.8101","258.5085","101.4269","0","U","18187","999","69893","-0.00000277520000","-0.00000108","0.0000000000000","7166.164","100.621","799.069","776.988","PAYLOAD","LARGE","CIS","1987-07-10","TTMTR","","2684692","146831350","0 COSMOS 1867","1 18187U 87060A   20016.14038639 -.00000108  00000-0 -27752-5 0  9998","2 18187  65.0096 109.8101 0015406 258.5085 101.4269 14.31108753698933"
"2.0","GENERATED VIA SPACE-TRACK.ORG API","2020-01-15T22:20:14","18 SPCS","IRIDIUM 153","2017-083J","EARTH","TEME","UTC","SGP4","2020-01-15T17:21:03.151296","14.34216972","0.00024780","86.3990","190.1826","113.0555","247.0902","0","U","43078","999","10924","-0.00000566220000","0.00000004","0.0000000000000","7155.806","100.403","779.444","775.898","PAYLOAD","LARGE","US","2017-12-23","AFWTR","","2684547","146828493","0 IRIDIUM 153","1 43078U 17083J   20015.72295314  .00000004  00000-0 -56622-5 0  9993","2 43078  86.3990 190.1826 0002478 113.0555 247.0902 14.34216972109246"
"2.0","GENERATED VIA SPACE-TRACK.ORG API","2020-01-15T21:44:10","18 SPCS","IRIDIUM 153","2017-083J","EARTH","TEME","UTC","SGP4","2020-01-15T12:19:39.137088","14.34216981","0.00024670","86.3989","190.2700","113.1866","246.9589","0","U","43078","999","10921","-0.00000582160000","0.00000003","0.0000000000000","7155.806","100.403","779.437","775.906","PAYLOAD","LARGE","US","2017-12-23","AFWTR","","2684543","146826775","0 IRIDIUM 153","1 43078U 17083J   20015.51364742 +.00000003 +00000-0 -58216-5 0  9992","2 43078 086.3989 190.2700 0002467 113.1866 246.9589 14.34216981109216"
"2.0","GENERATED VIA SPACE-TRACK.ORG API","2020-01-15T21:44:10","18 SPCS","COSMOS 1867","1987-060A","EARTH","TEME","UTC","SGP4","2020-01-15T12:16:30.071424","14.31108756","0.00154200","65.0096","111.5702","258.4886","101.4467","0","U","18187","999","69861","-0.00000401810000","-0.00000111","0.0000000000000","7166.164","100.621","799.079","776.978","PAYLOAD","LARGE","CIS","1987-07-10","TTMTR","","2684543","146813245","0 COSMOS 1867","1 18187U 87060A   20015.51145916 -.00000111 +00000-0 -40181-5 0  9990","2 18187 065.0096 111.5702 0015420 258.4886 101.4467 14.31108756698612"
"2.0","GENERATED VIA SPACE-TRACK.ORG API","2020-01-15T06:20:17","18 SPCS","COSMOS 1867","1987-060A","EARTH","TEME","UTC","SGP4","2020-01-15T02:12:43.861248","14.31108773","0.00154240","65.0096","112.7436","258.4694","101.4659","0","U","18187","999","69878","-0.00000419450000","-0.00000111","0.0000000000000","7166.164","100.621","799.082","776.975","PAYLOAD","LARGE","CIS","1987-07-10","TTMTR","","2684174","146801669","0 COSMOS 1867","1 18187U 87060A   20015.09217432 -.00000111  00000-0 -41945-5 0  9995","2 18187  65.0096 112.7436 0015424 258.4694 101.4659 14.31108773698780"
"2.0","GENERATED VIA SPACE-TRACK.ORG API","2020-01-15T04:33:10","18 SPCS","IRIDIUM 153","2017-083J","EARTH","TEME","UTC","SGP4","2020-01-14T17:54:31.097664","14.34217019","0.00024320","86.3989","190.5904","113.9296","246.2155","0","U","43078","999","10910","-0.00000422130000","0.00000008","0.0000000000000","7155.806","100.403","779.411","775.931","PAYLOAD","LARGE","US","2017-12-23","AFWTR","","2684153","146799718","0 IRIDIUM 153","1 43078U 17083J   20014.74619326 +.00000008 +00000-0 -42213-5 0  9992","2 43078 086.3989 190.5904 0002432 113.9296 246.2155 14.34217019109105"
"2.0","GENERATED VIA SPACE-TRACK.ORG API","2020-01-14T16:10:15","18 SPCS","IRIDIUM 153","2017-083J","EARTH","TEME","UTC","SGP4","2020-01-14T12:53:07.084320","14.34217021","0.00024210","86.3989","190.6778","114.1089","246.0360","0","U","43078","999","10907","-0.00000470870000","0.00000007","0.0000000000000","7155.806","100.403","779.403","775.939","PAYLOAD","LARGE","US","2017-12-23","AFWTR","","2683932","146758256","0 IRIDIUM 153","1 43078U 17083J   20014.53688755  .00000007  00000-0 -47087-5 0  9994","2 43078  86.3989 190.6778 0002421 114.1089 246.0360 14.34217021109071"
"2.0","GENERATED VIA SPACE-TRACK.ORG API","2020-01-14T16:10:15","18 SPCS","IRIDIUM 153","2017-083J","EARTH","TEME","UTC","SGP4","2020-01-14T12:53:07.084320","14.34217021","0.00024210","86.3989","190.6778","114.1089","246.0360","0","U","43078","999","10907","-0.00000470870000","0.00000007","0.0000000000000","7155.806","100.403","779.403","775.939","PAYLOAD","LARGE","US","2017-12-23","AFWTR","","2683933","146758286","0 IRIDIUM 153","1 43078U 17083J   20014.53688755  .00000007  00000-0 -47087-5 0  9994","2 43078  86.3989 190.6778 0002421 114.1089 246.0360 14.34217021109071"
"2.0","GENERATED VIA SPACE-TRACK.ORG API","2020-01-15T04:33:10","18 SPCS","COSMOS 1867","1987-060A","EARTH","TEME","UTC","SGP4","2020-01-14T12:47:42.252288","14.31108787","0.00154330","65.0095","114.3081","258.4445","101.4906","0","U","18187","999","69847","-0.00000442220000","-0.00000112","0.0000000000000","7166.163","100.621","799.088","776.969","PAYLOAD","LARGE","CIS","1987-07-10","TTMTR","","2684153","146786188","0 COSMOS 1867","1 18187U 87060A   20014.53312792 -.00000112 +00000-0 -44222-5 0  9990","2 18187 065.0095 114.3081 0015433 258.4445 101.4906 14.31108787698473"
"2.0","GENERATED VIA SPACE-TRACK.ORG API","2020-01-14T04:47:54","18 SPCS","IRIDIUM 153","2017-083J","EARTH","TEME","UTC","SGP4","2020-01-13T21:48:55.049472","14.34217076","0.00023880","86.3989","190.9401","114.6701","245.4744","0","U","43078","999","10898","-0.00000243620000","0.00000013","0.0000000000000","7155.806","100.403","779.380","775.962","PAYLOAD","LARGE","US","2017-12-23","AFWTR","","2683577","146728723","0 IRIDIUM 153","1 43078U 17083J   20013.90897048 +.00000013 +00000-0 -24362-5 0  9999","2 43078 086.3989 190.9401 0002388 114.6701 245.4744 14.34217076108983"
"2.0","GENERATED VIA SPACE-TRACK.ORG API","2020-01-13T22:20:17","18 SPCS","COSMOS 1867","1987-060A","EARTH","TEME","UTC","SGP4","2020-01-13T16:40:09.842304","14.31108792","0.00154450","65.0094","116.6549","258.4098","101.5253","0","U","18187","999","69858","-0.00000453390000","-0.00000112","0.0000000000000","7166.163","100.621","799.097","776.960","PAYLOAD","LARGE","CIS","1987-07-10","TTMTR","","2683446","146708396","0 COSMOS 1867","1 18187U 87060A   20013.69455836 -.00000112  00000-0 -45339-5 0  9993","2 18187  65.0094 116.6549 0015445 258.4098 101.5253 14.31108792698587"
"2.0","GENERATED VIA SPACE-TRACK.ORG API","2020-01-13T15:50:12","18 SPCS","IRIDIUM 153","2017-083J","EARTH","TEME","UTC","SGP4","2020-01-13T11:46:07.027968","14.34217091","0.00023630","86.3989","191.1148","114.9169","245.2272","0","U","43078","999","10892","-0.00000178300000","0.00000015","0.0000000000000","7155.806","100.403","779.362","775.980","PAYLOAD","LARGE","US","2017-12-23","AFWTR","","2683329","146687606","0 IRIDIUM 153","1 43078U 17083J   20013.49035912  .00000015  00000-0 -17830-5 0  9991","2 43078  86.3989 191.1148 0002363 114.9169 245.2272 14.34217091108923"
"2.0","GENERATED VIA SPACE-TRACK.ORG API","2020-01-13T05:01:04","18 SPCS","IRIDIUM 153","2017-083J","EARTH","TEME","UTC","SGP4","2020-01-12T20:41:54.997440","14.34217112","0.00023290","86.3989","191.3770","115.4153","244.7284","0","U","43078","999","10883","-0.00000079193000","0.00000018","0.0000000000000","7155.806","100.403","779.337","776.004","PAYLOAD","LARGE","US","2017-12-23","AFWTR","","2682982","146678461","0 IRIDIUM 153","1 43078U 17083J   20012.86244210 +.00000018 +00000-0 -79193-6 0  9998","2 43078 086.3989 191.3770 0002329 115.4153 244.7284 14.34217112108838"
"2.0","GENERATED VIA SPACE-TRACK.ORG API","2020-01-13T05:01:04","18 SPCS","COSMOS 1867","1987-060A","EARTH","TEME","UTC","SGP4","2020-01-12T15:30:44.341056","14.31108843","0.00154490","65.0109","119.5876","258.8330","101.1017","0","U","18187","999","69820","0.00000436720000","-0.00000089","0.0000000000000","7166.163","100.621","799.099","776.957","PAYLOAD","LARGE","CIS","1987-07-10","TTMTR","","2682982","146664929","0 COSMOS 1867","1 18187U 87060A   20012.64634654 -.00000089 +00000-0 +43672-5 0  9994","2 18187 065.0109 119.5876 0015449 258.8330 101.1017 14.31108843698206"
